TRANSIT 16 [?]          
1 02807U 67048A   23005.30509164  .00000133  00000+0  19185-3 0  9993
2 02807  89.6581  29.5331 0019532 342.5113  29.1899 13.50349879738014
TRANSIT 17 [?]          
1 02965U 67092A   23005.52315100  .00000115  00000+0  15250-3 0  9995
2 02965  89.2343 107.7951 0049597 108.9820 262.5295 13.53061084725966
TRANSIT 18 [?]          
1 03133U 68012A   23005.51658713  .00000124  00000+0  17274-3 0  9993
2 03133  90.0119 271.7084 0076225  37.1028 136.0326 13.51188893424372
NNSS 19 [?]             
1 04507U 70067A   23005.40612458  .00000130  00000+0  16837-3 0  9997
2 04507  89.9329 237.8730 0172842 158.8254 202.0168 13.50868209577421
NNSS O-20 [?]           
1 06909U 73081A   23005.47150222  .00000239  00000+0  23485-3 0  9994
2 06909  89.8234 273.6180 0157973  52.2803 309.2558 13.70736542656680
TRANSAT [?]             
1 10457U 77106A   23005.53671009  .00000076  00000+0  10501-3 0  9991
2 10457  89.6758 115.9597 0026221  48.0363 323.1401 13.48703162222900
NOVA I [?]              
1 12458U 81044A   23005.51533334  .00000064  00000+0  13001-3 0  9991
2 12458  89.8845 105.4305 0014954 174.1949 196.8979 13.23086263 10071
NOVA 3 [?]              
1 15362U 84110A   23005.43016926  .00000096  00000+0  20767-3 0  9991
2 15362  90.1038  68.9161 0033090  48.2674 322.7499 13.22851660845217
OSCAR 30 [?]            
1 15935U 85066A   23005.48826084  .00000114  00000+0  19235-3 0  9996
2 15935  90.1811  81.4399 0167600 228.1121 142.0732 13.35784316821377
OSCAR 24 [?]            
1 15936U 85066B   23005.43479083  .00000114  00000+0  19334-3 0  9995
2 15936  90.1777  73.3485 0167997 234.1285 135.5648 13.35643276823286
POLAR BEAR [?]          
1 17070U 86088A   23005.59136753  .00000110  00000+0  10277-3 0  9995
2 17070  89.5729 228.4503 0040923 112.9766 265.9125 13.74901186812451
OSCAR 27 [?]            
1 18361U 87080A   23005.55817592  .00000110  00000+0  16808-3 0  9991
2 18361  90.3356  40.9888 0105847  55.6230 305.4873 13.44594129731474
OSCAR 29 [?]            
1 18362U 87080B   23005.14616444  .00000097  00000+0  14579-3 0  9997
2 18362  90.3370  41.3232 0107905  77.1425 346.5306 13.44180125730991
OSCAR 23 [?]            
1 19070U 88033A   23005.34334128  .00000078  00000+0  14509-3 0  9993
2 19070  90.3249 343.1979 0188112 282.5926 251.6174 13.27546012680233
OSCAR 32 [?]            
1 19071U 88033B   23005.38074421  .00000044  00000+0  76837-4 0  9991
2 19071  90.3250 343.2891 0186344 270.1523 246.6037 13.27724890680347
NOVA 11 [?]             
1 19223U 88052A   23005.50426065  .00000043  00000+0  79883-4 0  9993
2 19223  89.9779  80.3763 0032469  89.3499 282.7069 13.22764427667721
OSCAR 25 [?]            
1 19419U 88074A   23005.27324566  .00000107  00000+0  16680-3 0  9997
2 19419  90.0050  18.0236 0098078  65.9830 305.5376 13.42323166682515
OSCAR 31 [?]            
1 19420U 88074B   23005.28598120  .00000081  00000+0  12284-3 0  9996
2 19420  90.0062  18.2215 0096184  60.2079 311.6408 13.42331053682628
